{"type": "FeatureCollection", "features": [ {"type": "Feature", "properties": {"norad_id": 66468, "name": "STARLINK-35331", "group": "last-30-days", "lat": -41.91171454899894, "lon": 19.151520839574733, "alt_km": 391.77494552299413, "timestamp": "2025-12-03T13:52:08.345541+00:00", "meta": {"OBJECT_NAME": "STARLINK-35331", "OBJECT_ID": "2025-262N", "EPOCH": "2025-12-03T08:00:01.999872", "MEAN_MOTION": 15.60455412, "ECCENTRICITY": 0.00016989, "INCLINATION": 42.9992, "RA_OF_ASC_NODE": 126.1733, "ARG_OF_PERICENTER": 266.7909, "MEAN_ANOMALY": 56.8978, "EPHEMERIS_TYPE": 0, "CLASSIFICATION_TYPE": "U", "NORAD_CAT_ID": 66468, "ELEMENT_SET_NO": 999, "REV_AT_EPOCH": 412, "BSTAR": -0.02789794, "MEAN_MOTION_DOT": -0.02061692, "MEAN_MOTION_DDOT": 0}, "tle": {"line1": "1 66468U 25262N   25337.33335648 -.02061692  00000+0 -27898-1 0  9994", "line2": "2 66468  42.9992 126.1733 0001698 266.7909  56.8978 15.60455412  4126"}}, "geometry": {"type": "Point", "coordinates": [19.151520839574733, -41.91171454899894]}}, {"type": "Feature", "properties": {"norad_id": 66469, "name": "STARLINK-35451", "group": "last-30-days", "lat": -42.70811653421232, "lon": 26.83676870501224, "alt_km": 391.87902391101306, "timestamp": "2025-12-03T13:52:08.345551+00:00", "meta": {"OBJECT_NAME": "STARLINK-35451", "OBJECT_ID": "2025-262P", "EPOCH": "2025-12-03T08:00:01.999872", "MEAN_MOTION": 15.60446818, "ECCENTRICITY": 0.00015845, "INCLINATION": 42.9991, "RA_OF_ASC_NODE": 126.1582, "ARG_OF_PERICENTER": 266.0548, "MEAN_ANOMALY": 63.3939, "EPHEMERIS_TYPE": 0, "CLASSIFICATION_TYPE": "U", "NORAD_CAT_ID": 66469, "ELEMENT_SET_NO": 999, "REV_AT_EPOCH": 412, "BSTAR": -0.027792811, "MEAN_MOTION_DOT": -0.0205423, "MEAN_MOTION_DDOT": 0}, "tle": {"line1": "1 66469U 25262P   25337.33335648 -.02054230  00000+0 -27793-1 0  9999", "line2": "2 66469  42.9991 126.1582 0001584 266.0548  63.3939 15.60446818  4124"}}, "geometry": {"type": "Point", "coordinates": [26.83676870501224, -42.70811653421232]}}, {"type": "Feature", "properties": {"norad_id": 66470, "name": "STARLINK-35655", "group": "last-30-days", "lat": -42.23372981394887, "lon": 21.687827740455077, "alt_km": 391.79089219783873, "timestamp": "2025-12-03T13:52:08.345563+00:00", "meta": {"OBJECT_NAME": "STARLINK-35655", "OBJECT_ID": "2025-262Q", "EPOCH": "2025-12-03T08:00:01.999872", "MEAN_MOTION": 15.60454698, "ECCENTRICITY": 0.00016953, "INCLINATION": 42.999, "RA_OF_ASC_NODE": 126.1687, "ARG_OF_PERICENTER": 268.7432, "MEAN_ANOMALY": 56.8622, "EPHEMERIS_TYPE": 0, "CLASSIFICATION_TYPE": "U", "NORAD_CAT_ID": 66470, "ELEMENT_SET_NO": 999, "REV_AT_EPOCH": 412, "BSTAR": -0.027880251, "MEAN_MOTION_DOT": -0.020605, "MEAN_MOTION_DDOT": 0}, "tle": {"line1": "1 66470U 25262Q   25337.33335648 -.02060500  00000+0 -27880-1 0  9995", "line2": "2 66470  42.9990 126.1687 0001695 268.7432  56.8622 15.60454698  4126"}}, "geometry": {"type": "Point", "coordinates": [21.687827740455077, -42.23372981394887]}}, {"type": "Feature", "properties": {"norad_id": 66471, "name": "STARLINK-35569", "group": "last-30-days", "lat": -42.50012015756871, "lon": 24.2547765103818, "alt_km": 391.82714678874436, "timestamp": "2025-12-03T13:52:08.345576+00:00", "meta": {"OBJECT_NAME": "STARLINK-35569", "OBJECT_ID": "2025-262R", "EPOCH": "2025-12-03T08:00:01.999872", "MEAN_MOTION": 15.60449555, "ECCENTRICITY": 0.0001651, "INCLINATION": 42.9991, "RA_OF_ASC_NODE": 126.1634, "ARG_OF_PERICENTER": 266.4772, "MEAN_ANOMALY": 61.0523, "EPHEMERIS_TYPE": 0, "CLASSIFICATION_TYPE": "U", "NORAD_CAT_ID": 66471, "ELEMENT_SET_NO": 999, "REV_AT_EPOCH": 412, "BSTAR": -0.027841034, "MEAN_MOTION_DOT": -0.0205758, "MEAN_MOTION_DDOT": 0}, "tle": {"line1": "1 66471U 25262R   25337.33335648 -.02057580  00000+0 -27841-1 0  9997", "line2": "2 66471  42.9991 126.1634 0001651 266.4772  61.0523 15.60449555  4128"}}, "geometry": {"type": "Point", "coordinates": [24.2547765103818, -42.50012015756871]}}, {"type": "Feature", "properties": {"norad_id": 66472, "name": "STARLINK-35567", "group": "last-30-days", "lat": -42.85731252858258, "lon": 29.427511499175964, "alt_km": 391.82595737979864, "timestamp": "2025-12-03T13:52:08.345586+00:00", "meta": {"OBJECT_NAME": "STARLINK-35567", "OBJECT_ID": "2025-262S", "EPOCH": "2025-12-03T08:00:01.999872", "MEAN_MOTION": 15.60447158, "ECCENTRICITY": 0.00016817, "INCLINATION": 42.9992, "RA_OF_ASC_NODE": 126.1538, "ARG_OF_PERICENTER": 271.363, "MEAN_ANOMALY": 60.0004, "EPHEMERIS_TYPE": 0, "CLASSIFICATION_TYPE": "U", "NORAD_CAT_ID": 66472, "ELEMENT_SET_NO": 999, "REV_AT_EPOCH": 412, "BSTAR": -0.027790828, "MEAN_MOTION_DOT": -0.02054203, "MEAN_MOTION_DDOT": 0}, "tle": {"line1": "1 66472U 25262S   25337.33335648 -.02054203  00000+0 -27791-1 0  9991", "line2": "2 66472  42.9992 126.1538 0001681 271.3630  60.0004 15.60447158  4124"}}, "geometry": {"type": "Point", "coordinates": [29.427511499175964, -42.85731252858258]}}, {"type": "Feature", "properties": {"norad_id": 66473, "name": "STARLINK-35568", "group": "last-30-days", "lat": -42.94783026104815, "lon": 32.035238648478085, "alt_km": 391.82063768501575, "timestamp": "2025-12-03T13:52:08.345596+00:00", "meta": {"OBJECT_NAME": "STARLINK-35568", "OBJECT_ID": "2025-262T", "EPOCH": "2025-12-03T08:00:01.999872", "MEAN_MOTION": 15.60455749, "ECCENTRICITY": 0.00016625, "INCLINATION": 42.9993, "RA_OF_ASC_NODE": 126.1488, "ARG_OF_PERICENTER": 266.7514, "MEAN_ANOMALY": 66.523, "EPHEMERIS_TYPE": 0, "CLASSIFICATION_TYPE": "U", "NORAD_CAT_ID": 66473, "ELEMENT_SET_NO": 999, "REV_AT_EPOCH": 412, "BSTAR": -0.027905411, "MEAN_MOTION_DOT": -0.02062167, "MEAN_MOTION_DDOT": 0}, "tle": {"line1": "1 66473U 25262T   25337.33335648 -.02062167  00000+0 -27905-1 0  9997", "line2": "2 66473  42.9993 126.1488 0001662 266.7514  66.5230 15.60455749  4125"}}, "geometry": {"type": "Point", "coordinates": [32.035238648478085, -42.94783026104815]}}, {"type": "Feature", "properties": {"norad_id": 66474, "name": "STARLINK-35620", "group": "last-30-days", "lat": -42.97879457684824, "lon": 34.65003460359613, "alt_km": 391.7349725700269, "timestamp": "2025-12-03T13:52:08.345608+00:00", "meta": {"OBJECT_NAME": "STARLINK-35620", "OBJECT_ID": "2025-262U", "EPOCH": "2025-12-03T08:00:01.999872", "MEAN_MOTION": 15.60439191, "ECCENTRICITY": 0.00018198, "INCLINATION": 42.9994, "RA_OF_ASC_NODE": 126.1437, "ARG_OF_PERICENTER": 265.3189, "MEAN_ANOMALY": 69.8847, "EPHEMERIS_TYPE": 0, "CLASSIFICATION_TYPE": "U", "NORAD_CAT_ID": 66474, "ELEMENT_SET_NO": 999, "REV_AT_EPOCH": 412, "BSTAR": -0.027667935, "MEAN_MOTION_DOT": -0.02045837, "MEAN_MOTION_DDOT": 0}, "tle": {"line1": "1 66474U 25262U   25337.33335648 -.02045837  00000+0 -27668-1 0  9999", "line2": "2 66474  42.9994 126.1437 0001819 265.3189  69.8847 15.60439191  4121"}}, "geometry": {"type": "Point", "coordinates": [34.65003460359613, -42.97879457684824]}}, {"type": "Feature", "properties": {"norad_id": 66475, "name": "STARLINK-35538", "group": "last-30-days", "lat": -42.95009717509322, "lon": 37.25672976817921, "alt_km": 391.7457851684594, "timestamp": "2025-12-03T13:52:08.345619+00:00", "meta": {"OBJECT_NAME": "STARLINK-35538", "OBJECT_ID": "2025-262V", "EPOCH": "2025-12-03T08:00:01.999872", "MEAN_MOTION": 15.60446865, "ECCENTRICITY": 0.00017841, "INCLINATION": 42.9994, "RA_OF_ASC_NODE": 126.1397, "ARG_OF_PERICENTER": 269.0517, "MEAN_ANOMALY": 68.0615, "EPHEMERIS_TYPE": 0, "CLASSIFICATION_TYPE": "U", "NORAD_CAT_ID": 66475, "ELEMENT_SET_NO": 999, "REV_AT_EPOCH": 412, "BSTAR": -0.027762998, "MEAN_MOTION_DOT": -0.02052472, "MEAN_MOTION_DDOT": 0}, "tle": {"line1": "1 66475U 25262V   25337.33335648 -.02052472  00000+0 -27763-1 0  9999", "line2": "2 66475  42.9994 126.1397 0001784 269.0517  68.0615 15.60446865  4124"}}, "geometry": {"type": "Point", "coordinates": [37.25672976817921, -42.95009717509322]}}, {"type": "Feature", "properties": {"norad_id": 66476, "name": "STARLINK-35372", "group": "last-30-days", "lat": -42.86155115337673, "lon": 39.866395456904634, "alt_km": 391.7910444551262, "timestamp": "2025-12-03T13:52:08.345629+00:00", "meta": {"OBJECT_NAME": "STARLINK-35372", "OBJECT_ID": "2025-262W", "EPOCH": "2025-12-03T08:00:01.999872", "MEAN_MOTION": 15.60448833, "ECCENTRICITY": 0.00017231, "INCLINATION": 42.9992, "RA_OF_ASC_NODE": 126.1344, "ARG_OF_PERICENTER": 266.0292, "MEAN_ANOMALY": 73.0015, "EPHEMERIS_TYPE": 0, "CLASSIFICATION_TYPE": "U", "NORAD_CAT_ID": 66476, "ELEMENT_SET_NO": 999, "REV_AT_EPOCH": 401, "BSTAR": -0.027805837, "MEAN_MOTION_DOT": -0.0205532, "MEAN_MOTION_DDOT": 0}, "tle": {"line1": "1 66476U 25262W   25337.33335648 -.02055320  00000+0 -27806-1 0  9993", "line2": "2 66476  42.9992 126.1344 0001723 266.0292  73.0015 15.60448833  4010"}}, "geometry": {"type": "Point", "coordinates": [39.866395456904634, -42.86155115337673]}}, {"type": "Feature", "properties": {"norad_id": 66477, "name": "STARLINK-35354", "group": "last-30-days", "lat": -42.50817226721611, "lon": 45.042152582832266, "alt_km": 391.8361379843591, "timestamp": "2025-12-03T13:52:08.345639+00:00", "meta": {"OBJECT_NAME": "STARLINK-35354", "OBJECT_ID": "2025-262X", "EPOCH": "2025-12-03T08:00:01.999872", "MEAN_MOTION": 15.6044975, "ECCENTRICITY": 0.00016358, "INCLINATION": 42.999, "RA_OF_ASC_NODE": 126.124, "ARG_OF_PERICENTER": 270.6155, "MEAN_ANOMALY": 72.2497, "EPHEMERIS_TYPE": 0, "CLASSIFICATION_TYPE": "U", "NORAD_CAT_ID": 66477, "ELEMENT_SET_NO": 999, "REV_AT_EPOCH": 412, "BSTAR": -0.027839294, "MEAN_MOTION_DOT": -0.02057469, "MEAN_MOTION_DDOT": 0}, "tle": {"line1": "1 66477U 25262X   25337.33335648 -.02057469  00000+0 -27839-1 0  9996", "line2": "2 66477  42.9990 126.1240 0001635 270.6155  72.2497 15.60449750  4121"}}, "geometry": {"type": "Point", "coordinates": [45.042152582832266, -42.50817226721611]}}]}